O3B MPOWER F1           
1 54755U 22174A   24087.83948812 -.00000017  00000+0  00000+0 0  9993
2 54755   0.0653   5.0402 0006575   9.1332  82.0826  5.00114923 24753
